name,Categoria,address,CodiceIdentificativo,telephone,email,website,iso3
Profumo Di Pane Piazza,Aziende CerveteriOsterie CerveteriNegozi CerveteriPanetterie Cerveteri,"Piazza Aldo Moro, 15, 00052 Cerveteri RM, Italia  ",1042600,329 788 3342,,,
WIND Negozio Cerveteri Largo Almunecar 6,Aziende CerveteriNegozi Cerveteri,"Largo Almunecar, 6, 00052 Cerveteri RM, Italia  ",1042599,06 994 2871,,,
Chiesa Madonna dei Canneti,Aziende CerveteriChiese CerveteriLuoghi di culto Cerveteri,"00052 Cerveteri RM, Italia  ",1040351,,,,
negozi cerveteri,Aziende Cerveteri,"Via Sant' Angelo, 43, 00052 Cerveteri RM, Italia  ",1038496,06 9893 5138,,,
Caf Coldiretti - Impresa Verde Roma S.R.L.,Aziende Cerveteri,"Via Sant'Antonio, 62, 00052 Cerveteri RM, Italia  ",1038493,06 9980 4788,,,
Elettromeccanica Mazzone Italo,Aziende Cerveteri,"Via Monte Zebio, 22, 00052 Cerveteri RM, Italia  ",1038488,06 8760 7349,,,
STUDIO FOTOGRAFICO TROGU,Aziende CerveteriNegozi CerveteriNegozi di casalinghi CerveteriNegozi di elettronica Cerveteri,"Viale Alessandro Manzoni, 78, 00052 Cerveteri RM, Italia  ",1037814,338 905 8568,,,
Arana molino,Aziende CerveteriNegozi CerveteriNegozi di casalinghi Cerveteri,"Via Ceretana, 49 d, 00052 Cerveteri RM, Italia  ",1037813,366 339 4728,,,
Emozioni Di Biscetti Romina,Aziende CerveteriNegozi CerveteriNegozi di casalinghi Cerveteri,"Via S. Maria, 20, 00052 Cerveteri RM, Italia  ",1037812,,,,
casa uno srls,Aziende CerveteriCentri commerciali Cerveteri,"Viale Alessandro Manzoni, 33, 00052 Cerveteri RM, Italia  ",1032052,,,,
Te Travagliati Edoardo,Aziende CerveteriNegozi CerveteriNegozi di casalinghi CerveteriNegozi di arredamento Cerveteri,"Via Liguria, 15, 00052 Cerveteri RM, Italia  ",1031785,06 994 2583,,,
Marini Elettrodomestici,Aziende CerveteriNegozi CerveteriNegozi di casalinghi Cerveteri,"Via Settevene Palo, 233, 00052 Cerveteri RM, Italia  ",1030738,06 994 2454,,,
digitalesi,Aziende Cerveteri,"Via Settevene Palo, 224, 00052 Cerveteri RM, Italia  ",1028341,06 6400 2307,,,
Consulente Del Lavoro Rag. Claudio Bartocci,Aziende Cerveteri,"Via Armando Diaz, 10, 00052 Cerveteri RM, Italia  ",1027408,06 994 2017,,,
L'Ortica del Venerdì,Aziende Cerveteri,"Piazza Risorgimento, 4, 00052 Cerveteri RM, Italia  ",1027345,06 994 1736,,,
Pelletteria Particolari,Aziende CerveteriNegozi Cerveteri,"Via Roma, 14, 00052 Cerveteri RM, Italia  ",1026719,06 994 0032,,,
Inquadro - La Boccetta Cornici La Boccetta Cornici Di Uzzo Fabio,Aziende CerveteriNegozi Cerveteri,"Largo della Boccetta, 25, 00052 Cerveteri RM, Italia  ",1026720,393 871 4456,,,
Tomba dei Rilievi,Aziende CerveteriMusei Cerveteri,"00052 Cerveteri RM, Italia  ",1019627,,,,
Dr. Piccioni Marcotelefono sudiot,Aziende CerveteriErboristerie CerveteriMedici Cerveteri,"Viale Alessandro Manzoni, 82, 00052 Cerveteri RM, Italia  ",1018266,,,,
Generali Italia Agenzia di CERVETERI,Aziende CerveteriAgenzie di assicurazione Cerveteri,"Via Ceretana, 55, 00052 Cerveteri RM, Italia  ",1013800,06 9724 8206,,,
Papi Fausto,Aziende CerveteriNegozi CerveteriMeccanici Auto Cerveteri,"Via Settevene Palo, 240, 00052 Cerveteri RM, Italia  ",1000673,06 995 2014,,,
Sari Autoricambi,Aziende CerveteriNegozi CerveteriMeccanici Auto Cerveteri,"00052 Cerveteri RM, Italia  ",1000674,,,,
La MR Service,Aziende CerveteriAgenzie Immobiliari Cerveteri,"Viale Alessandro Manzoni, 53, 00052 Cerveteri RM, Italia  ",996849,06 994 1657,,,
Stima Casa,Aziende CerveteriAgenzie Immobiliari Cerveteri,"Via Settevene Palo, 225, 00052 Cerveteri RM, Italia  ",996846,,,,
Dizeta Immobiliare,Aziende CerveteriAgenzie Immobiliari Cerveteri,"00052 Cerveteri RM, Italia  ",996847,,,,
Diemme Immobiliare,Aziende CerveteriAgenzie Immobiliari Cerveteri,"Via Settevene Palo, 192/a, 00052 Cerveteri RM, Italia  ",996848,339 320 0334,,,
Flower Style,Aziende CerveteriNegozi CerveteriFiorai Cerveteri,"Via Settevene Palo, 145, 00052 Cerveteri RM, Italia  ",993466,,,,
TotaLook Parrucchiere,Aziende CerveteriParrucchieri Cerveteri,"Viale Alessandro Manzoni, 62, 00052 Cerveteri RM, Italia  ",988754,,,,
Maury's,Aziende CerveteriNegozi CerveteriNegozi di casalinghi Cerveteri,"Via G. Baldinelli, 18, 00052 Cerveteri RM, Italia  ",988388,,,,
Longarini Luca,Aziende CerveteriNegozi CerveteriNegozi di casalinghi Cerveteri,"Viale Alessandro Manzoni, 47, 00052 Cerveteri RM, Italia  ",988389,06 995 1225,,,
Necropoli rupestre di Greppe S. Angelo,Aziende CerveteriMusei Cerveteri,"Via Sant'Antonio, 00052 Cerveteri RM, Italia  ",987177,,,,
Tumulo Mengarelli,Aziende CerveteriMusei Cerveteri,"Via della Necropoli, 43, 00052 Cerveteri RM, Italia  ",987178,,,,
Necropoli Etrusca del Sorbo,Aziende CerveteriMusei Cerveteri,"00052 Cerveteri RM, Italia  ",987179,,,,
Tomba Della Cornice Rossa,Aziende CerveteriMusei Cerveteri,"Via della Necropoli, 48-50, 00052 Cerveteri RM, Italia  ",987175,,,,
Tomba Delle Iscrizioni Graffite,Aziende CerveteriMusei Cerveteri,"Via della Necropoli, 51-55, 00052 Cerveteri RM, Italia  ",987176,,,,
METROPOLITAN MUSEO,Aziende CerveteriMusei Cerveteri,"Via Agillina, 44, 00052 Cerveteri RM, Italia  ",987172,324 886 7879,,,
Belvedere,Aziende CerveteriMusei Cerveteri,"Via Bastioni, 66, 00052 Cerveteri RM, Italia  ",987173,,,,
Grandioso Tumulo Di Campo Della Fiera,Aziende CerveteriMusei Cerveteri,"Via della Necropoli, 48-50, 00052 Cerveteri RM, Italia  ",987174,,,,
Kelevra tattoo shop,Aziende CerveteriCentri commerciali Cerveteri,"Viale Alessandro Manzoni, 52, 00052 Cerveteri RM, Italia  ",985960,06 995 1439,,,
Bioleè,Aziende CerveteriOsterie CerveteriNegozi Cerveteri,"Piazza Risorgimento, 18, 00052 Cerveteri RM, Italia  ",984842,06 9724 2192,,,
Scuola Elementare Statale Giovanni Cena,Aziende CerveteriScuole Cerveteri,"Via Settevene Palo, 338, 00052 Cerveteri RM, Italia  ",984737,,,,
studio Professione Geometra,Uffici Comunali CerveteriAziende CerveteriIstituti finanziari Cerveteri,"Via Settevene Palo, 185, 00052 Cerveteri RM, Italia  ",984570,06 4555 9477,,,
A.S.D. Cerenova,Aziende CerveteriErboristerie CerveteriPalestre Cerveteri,"Via Settevene Palo, 338, 00052 Cerveteri RM, Italia  ",962224,331 989 1654,,,
Miami Gym,Aziende CerveteriErboristerie CerveteriPalestre Cerveteri,Italia - 00052 Cerveteri (RM)  ,962223,,,,
Picatronix car,Aziende CerveteriMeccanici Auto Cerveteri,"Via Settevene Palo, 272, 00052 Cerveteri RM, Italia  ",962069,06 4555 9502,,,
Giardini della Rimembranza,Aziende CerveteriParchi Cerveteri,"00052 Cerveteri RM, Italia  ",949367,,,,
Parco Pubblico della Legnara,Aziende CerveteriParchi Cerveteri,"00052 Cerveteri RM, Italia  ",949368,,,,
Oratorio S. Michele Arcangelo,Aziende CerveteriParchi Cerveteri,"Via Armando Diaz, 00052 Cerveteri RM, Italia  ",949369,,,,
Monica Li,Aziende CerveteriRistoranti CerveteriOsterie Cerveteri,"Piazza Santa Maria, 5, 00052 Cerveteri RM, Italia  ",948227,06 9724 2243,,,
Valfiore Carni,Aziende CerveteriOsterie CerveteriNegozi CerveteriNegozi di Alimentari Cerveteri,"Piazza Aldo Moro, 17, 00052 Cerveteri RM, Italia  ",948087,,,,
Caffè Di Pulcinella,Aziende CerveteriOsterie CerveteriNegozi CerveteriNegozi di Alimentari Cerveteri,"Via Ceretana, 6/a, 00052 Cerveteri RM, Italia  ",948088,06 6936 9693,,,
La Bottega Del Sorbo,Aziende CerveteriOsterie CerveteriNegozi CerveteriNegozi di Alimentari CerveteriSupermercati Cerveteri,"Via Settevene Palo, 330, 00052 Cerveteri RM, Italia  ",948089,06 9818 3174,,,
Dittamo Di Carla Lodato,Aziende CerveteriNegozi CerveteriNegozi di Abbigliamento Cerveteri,"Via delle Mura Castellane, 24, 00052 Cerveteri RM, Italia  ",941396,,,,
Laedil Srl,Aziende CerveteriNegozi Cerveteri,"Via Ammazzalamorte, 6, 00052 Cerveteri RM, Italia  ",932531,06 994 3590,,,
Luciano Badini Arredamenti,Aziende CerveteriNegozi CerveteriNegozi di casalinghi CerveteriNegozi di arredamento Cerveteri,"Via delle Mura Castellane, 62, 00052 Cerveteri RM, Italia  ",932532,06 994 0685,,,
VOBIS,Aziende CerveteriNegozi CerveteriNegozi di elettronica Cerveteri,"Cerveteri RM, Italia  ",919296,,,,
Dott. Angelo manciocchi,Aziende CerveteriErboristerie CerveteriMedici Cerveteri,"Via Marche, 5, 00052 Cerveteri RM, Italia  ",917472,380 303 5195,,,
Dott.ssa Margherita Fischetti GINECOLOGA,Aziende CerveteriErboristerie CerveteriMedici Cerveteri,"Viale A.Manzoni, 82, 00052 Cerveteri RM, Italia  ",917473,328 278 5788,,,
Studio Urologico Dott. Gabriella Mirabile,Aziende CerveteriErboristerie CerveteriMedici Cerveteri,"Via Vittorio Veneto, 2, 00052 Cerveteri RM, Italia  ",917474,06 9955 1155,,,
ASD Ftp Functional Training,Aziende CerveteriErboristerie CerveteriPalestre Cerveteri,"Cerveteri RM, Italia  ",909598,338 610 3015,,,
Assicurazioni Generali,Aziende CerveteriAgenzie di assicurazione Cerveteri,"Via Ceretana, 55, 00052 Cerveteri RM, Italia  ",905497,06 994 3568,,,
Assicurazioni Toro Pisanelli Viviana,Aziende CerveteriAgenzie di assicurazione Cerveteri,"Piazza Risorgimento, 4, 00052 Cerveteri RM, Italia  ",905498,06 995 3431,,,
La Sciuscella - Taverna Vegetariana,Aziende CerveteriRistoranti CerveteriOsterie Cerveteri,"Vicolo Bastioni, 2, 00052 Cerveteri RM, Italia  ",888981,392 334 9048,,,
Quintet Pub,Aziende CerveteriRistoranti CerveteriOsterie Cerveteri,"Via Francesco Rosati, 23, 00052 Cerveteri RM, Italia  ",888982,,,,
Il Punto Pizza,Aziende CerveteriRistoranti CerveteriOsterie Cerveteri,"Via delle Mura Castellane, 62, 00052 Cerveteri RM, Italia  ",888983,06 994 2610,,,
Ristorante Acli,Aziende CerveteriRistoranti CerveteriOsterie Cerveteri,"Via Drizzagno, 17, 00052 Cerveteri RM, Italia  ",888984,,,,
"Antica pizzeria dal 1978 ""Da Marzio""",Aziende CerveteriRistoranti CerveteriOsterie Cerveteri,"Via Roma, 10, 00052 Cerveteri RM, Italia  ",888979,06 994 0036,,,
La Piccola Trattoria Roma,Aziende CerveteriRistoranti CerveteriOsterie Cerveteri,"Via Armando Diaz, 18, 00052 Cerveteri RM, Italia  ",888980,320 711 0920,,,
Mercatino del Cellulare,Aziende CerveteriNegozi CerveteriNegozi di elettronica Cerveteri,"Via Settevene Palo, 149, 00052 Cerveteri RM, Italia  ",882228,06 995 1551,,,
Bar Etrusco,Aziende CerveteriOsterie CerveteriNegozi CerveteriTrattorie Cerveteri,"Via Tarquinia, 4, 00052 Cerveteri RM, Italia  ",877158,,,,
Mamma Mia,Aziende CerveteriRistoranti CerveteriOsterie Cerveteri,"Viale Alessandro Manzoni, 54, 00185 Roma, Italia  ",877155,06 9436 6851,,,
Frutteria,Aziende CerveteriOsterie CerveteriNegozi Cerveteri,"Via Col di Lana, 3, 00052 Cerveteri RM, Italia  ",877156,,,,
Fragranza Del Pane Srl,Aziende CerveteriOsterie Cerveteri,"Piazza Aldo Moro, 15, Cerveteri RM, Italia  ",877157,06 994 3167,,,
Osteria Cacio e Pepe,Aziende CerveteriRistoranti CerveteriOsterie Cerveteri,"Via Settevene Palo, 159, 00052 Cerveteri RM, Italia  ",877153,333 430 7045,,,
Molino Coletta Dal 1954,Aziende CerveteriOsterie Cerveteri,"Via Ceretana, 4, 00052 Cerveteri RM, Italia  ",877154,06 994 3566,,,
Da Bibbo osteria rivisitata,Aziende CerveteriRistoranti CerveteriOsterie Cerveteri,"Via Agillina, 41, 00052 Cerveteri RM, Italia  ",877151,388 659 8858,,,
Arià - Osteria di Fuori Porta,Aziende CerveteriRistoranti CerveteriOsterie Cerveteri,"Via della Necropoli, 2, 00052 Cerveteri RM, Italia  ",877152,389 675 6950,,,
La.se.a. srl,Aziende CerveteriOsterie Cerveteri,"Via Giovanni Pascoli, 3, Cerveteri RM, Italia  ",877149,06 994 1985,,,
Barrel Osteria nel Borgo,Aziende CerveteriRistoranti CerveteriOsterie Cerveteri,"Piazza Risorgimento, 16, 00052 Cerveteri RM, Italia  ",877150,06 995 3252,,,
Parcheggio del Cimitero,Aziende CerveteriParcheggi Cerveteri,"Parcheggio del Cimitero, Via Francesco Rosati, 00052 Cerveteri RM, Italia  ",875092,,,,
Blues Open Cafè,Aziende CerveteriBar Cerveteri,"Via Settevene Palo, 224, 00052 Cerveteri RM, Italia  ",870460,,,,
Citroen ROMA : SINI MOTOR SPORT SRL,Aziende CerveteriNegozi CerveteriConcessionarie Auto CerveteriMeccanici Auto Cerveteri,"VIA A. MORO 35, 00055 ROMA, Italia  ",868188,06 994 9780,,,
Profumeria Franca,Aziende CerveteriNegozi CerveteriNegozi di Abbigliamento Cerveteri,"Via Settevene Palo, 171, Cerveteri RM, Italia  ",867578,06 995 1581,,,
B.S.Moda Di Ercoletti Speronella,Aziende CerveteriNegozi CerveteriNegozi di Abbigliamento Cerveteri,"Via S. Maria, Cerveteri RM, Italia  ",867577,06 994 2516,,,
Dottoressa Aschettino,Aziende CerveteriErboristerie CerveteriMedici Cerveteri,"Viale Alessandro Manzoni, 82, 00052 Cerveteri RM, Italia  ",867163,,,,
Casale del tiglio,Aziende CerveteriAlberghi Cerveteri,"Via Settevene Palo, 344, 00052 Cerveteri RM, Italia  ",859969,328 586 7373,,,
Foto Otttica Etrusca Di Lupica Lucia,Aziende CerveteriErboristerie CerveteriNegozi Cerveteri,"Via Etruria, 1, 00052 Cerveteri RM, Italia  ",854434,06 994 2127,,,
Farmacia Comunale 1,Aziende CerveteriErboristerie CerveteriNegozi CerveteriFarmacie Cerveteri,"Piazza Risorgimento, 21, 00052 Cerveteri RM, Italia  ",854433,06 994 0006,,,
Maria S.r.l.,Aziende CerveteriNegozi CerveteriNegozi di Abbigliamento Cerveteri,"Via delle Mura Castellane, 32, Cerveteri RM, Italia  ",840760,06 994 3346,,,
Parcheggio del Cimitero,Aziende CerveteriParcheggi Cerveteri,"Parcheggio del Cimitero, Via Francesco Rosati, 00052 Cerveteri RM, Italia  ",836714,,,,
Enerpetroli Srl,Aziende CerveteriDistributori di benzina Cerveteri,"Via Furbara Sasso, 00052 Cerveteri RM, Italia  ",836549,06 9932 0155,,,
Motors Planet Assistenza Auto e Moto Cerveteri,Aziende CerveteriMeccanici Auto Cerveteri,"Via Settevene Palo, 196, 00052 Cerveteri RM, Italia  ",832915,06 994 3582,,,
REFIN CASA,Aziende CerveteriAgenzie Immobiliari Cerveteri,"Viale Alessandro Manzoni, 49, 00052 Cerveteri RM, Italia  ",817241,327 979 6924,,,
Gruppo Toscano S.p.A. - Cerveteri (Punto Immobiliare Cerveteri Srl),Aziende CerveteriAgenzie Immobiliari Cerveteri,"4, Via delle Mura Castellane, 2, 00052 Cerveteri RM, Italia  ",817238,06 9955 1103,,,
Frimm Etrusca Immobiliare Etrusc@Cerveteri S.R.L.,Aziende CerveteriAgenzie Immobiliari Cerveteri,"Via delle Mura Castellane, 22, Cerveteri RM, Italia  ",817239,06 9955 1105,,,
Agenzia Immobiliare Obycasa CERVETERI,Aziende CerveteriAgenzie Immobiliari Cerveteri,"Via delle Mura Castellane, 46/A, 00052 Cerveteri RM, Italia  ",817240,06 994 2933,,,
Baldi Immobiliare,Aziende CerveteriAlberghi CerveteriAgenzie Immobiliari Cerveteri,"Via Ceretana, 49, 00052 Cerveteri RM, Italia  ",817237,06 995 1069,,,
Immobiliare Malu' Fondazione Alda 1898 Di D'Ubaldo S. S.N.C.,Aziende Cerveteri,"Via delle Mura Castellane, 46/b, Cerveteri RM, Italia  ",803202,347 816 0380,,,
Sistem Tech Srl,Aziende Cerveteri,"Via S. Angelo, 41, Cerveteri RM, Italia  ",799332,06 994 2948,,,
Italian Bus Travel Srl,Aziende Cerveteri,"1 Via Pica, Cerveteri, RM 00052, Italia  ",799333,06 8865 4151,,,
M R Service srl,Aziende Cerveteri,"Via Rosati, 6, 00052 Cerveteri RM, Italia  ",799334,06 9893 7441,,,
Tomba degli Scudi e delle Sedie VII Sec. A. C. - Necropoli della Banditaccia,Aziende Cerveteri,"Cerveteri RM, Italia  ",799328,,,,
Tomba dei Letti Funebri - Necropoli della Banditaccia,Aziende Cerveteri,"Cerveteri RM, Italia  ",799329,,,,
Garofalo Catiuscia Professionecasa Cerveteri,Aziende Cerveteri,"Via Settevene Palo, 147, 00052 Cerveteri RM, Italia  ",799330,06 994 0726,,,
R.C.S. Immobiliare S.R.L.,Aziende Cerveteri,"Via Settevene Palo, 232, 00052 Cerveteri RM, Italia  ",799331,06 9955 1120,,,
Istituti di bellezza Sherasade,Aziende CerveteriTerme Cerveteri,"Via Settevene Palo, 135, Cerveteri RM, Italia  ",797649,06 994 0959,,,
caere viaggi ticket,Aziende CerveteriNegozi Cerveteri,"Piazza Aldo Moro, 16, 00052 Cerveteri RM, Italia  ",789694,06 994 2860,,,
Giesse 84 S.R.L.,Aziende CerveteriElettricisti Cerveteri,"Via S. Angelo, 54, Cerveteri RM, Italia  ",774380,06 995 2498,,,
Maselli Avv. Nicola,Aziende CerveteriIstituti finanziari Cerveteri,"Piazza Vicinatello, 10, Cerveteri RM, Italia  ",747839,06 994 0037,,,
M.B.Center Consult 2007 Srl,Aziende CerveteriIstituti finanziari Cerveteri,"Via Settevene Palo, 203, Cerveteri RM, Italia  ",747840,06 994 3056,,,
Banca Intesa Sanpaolo,Aziende CerveteriBancomat CerveteriIstituti finanziari CerveteriBanche Cerveteri,"Via Armando Diaz, Cerveteri RM, Italia  ",747836,06 9955 1500,,,
Affiliato Tecnocasa Cerveteri Mediazioni S.R.L. A Capitale Ridotto,Aziende CerveteriIstituti finanziari CerveteriAgenzie Immobiliari Cerveteri,"Via Ceretana, 53, 00052 Cerveteri RM, Italia  ",747837,06 9558 7039,,,
Taddei Dr. Alessandro,Aziende CerveteriIstituti finanziari Cerveteri,"Via Settevene Palo, 219, 00052 Cerveteri RM, Italia  ",747838,06 994 0762,,,
Sensini Cesira,Aziende CerveteriNegozi CerveteriGioiellerie Cerveteri,"Via Agillina, 15, Cerveteri RM, Italia  ",733166,06 994 3195,,,
Un Soffio Di Bellezza Snc Di Cicciarelli C. E Seri S.,Aziende CerveteriSaloni di Bellezza Cerveteri,"Viale Alessandro Manzoni, 52, Cerveteri RM, Italia  ",729890,06 995 2001,,,
Danieli Coltura Di Ciarciaglino Rita & C.S.A.S.,Aziende CerveteriNegozi CerveteriNegozi di casalinghi CerveteriNegozi di elettronica Cerveteri,"Via S. Angelo, 13, Cerveteri RM, Italia  ",711562,06 995 3075,,,
Foto Ottica Etrusca Di Lupica Lucia,Aziende CerveteriNegozi CerveteriNegozi di casalinghi CerveteriNegozi di elettronica Cerveteri,"1, Via Etruria, Cerveteri, RM 00052, Italia  ",711561,06 994 2127,,,
Biblioteca Comunale,Aziende CerveteriBiblioteche Cerveteri,"Via Francesco Rosati, 00052 Cerveteri RM, Italia  ",711339,,,,
Di Giuseppe Emiliano,Aziende CerveteriMeccanici Auto Cerveteri,"Viale Alessandro Manzoni, 39, Cerveteri RM, Italia  ",705137,06 994 1016,,,
Istituto Tecnico Commerciale,Aziende CerveteriScuole Cerveteri,"Via Piave, 22, Cerveteri RM, Italia  ",700452,06 9980 3436,,,
Il Ghiottone Di Rita Demaria,Aziende CerveteriBar Cerveteri,"2 Localita' Campo Di Mare, Cerveteri, RM 00052, Italia  ",699673,06 990 2533,,,
Fantasia 2003 Sas Di Ghelarducci Barbara & C.,Aziende CerveteriBar Cerveteri,"Piazza Risorgimento, 12, Cerveteri RM, Italia  ",699674,06 994 3140,,,
Mezzopane E C. S.A.S. Di Mezzopane Felicia,Aziende CerveteriBar Cerveteri,"Via Settevene Palo, 167, 00052 Cerveteri RM, Italia  ",699672,06 9955 2694,,,
Coop Produttori E Allevatori Di Bestiame I Terzi A R.L.,Aziende CerveteriOsterie Cerveteri,"9 Localita' I Terzi, Cerveteri, RM 00052, Italia  ",698719,06 9920 5120,,,
Alimentari Di Giorgio Marcello,Aziende CerveteriOsterie CerveteriNegozi CerveteriNegozi di Alimentari Cerveteri,"13 Localita' I Terzi, Cerveteri, RM 00052, Italia  ",698155,06 9920 5065,,,
Pasticceria Dolci Incontri Si.Da.Ca. Snc Di Simone E Daniela Campoli,Aziende CerveteriOsterie CerveteriNegozi CerveteriPanetterie Cerveteri,"Via Settevene Palo, 265, Cerveteri RM, Italia  ",690190,06 6401 2242,,,
Valentina D.M. Srl,Aziende CerveteriOsterie CerveteriNegozi CerveteriPanetterie Cerveteri,"Viale Alessandro Manzoni, 66, Cerveteri RM, Italia  ",690191,06 995 1570,,,
Si.Ste. Di Sebastiani Bruno E C. S.N.C.,Aziende CerveteriOsterie CerveteriNegozi CerveteriPanetterie Cerveteri,"Via Settevene Palo, 200, 00052 Cerveteri RM, Italia  ",690192,06 995 1718,,,
"Centro di Fisioterapia e Kinesiterapia ""San Pietro""",Aziende CerveteriErboristerie Cerveterifisioterapista Cerveteri,"Via Piave, 35, 00052 Cerveteri RM, Italia  ",687936,06 995 2583,,,
Tenuta Ardeatina Soc.Coop.Arl,Aziende CerveteriErboristerie CerveteriNegozi Cerveteri,"Largo Guido Rossa, 1, Cerveteri RM, Italia  ",687937,06 994 0650,,,
Comune Di Cerveteri,Municipi CerveteriUffici Comunali CerveteriAziende Cerveteri,"Via Settevene Palo, 322, Cerveteri RM, Italia  ",682937,06 994 3960,,,
Comune,Municipi CerveteriUffici Comunali CerveteriAziende Cerveteri,"Piazza Risorgimento, 3, Cerveteri RM, Italia  ",682938,06 994 0042,,,
Caere Odontoiatrica Di Di Bartolomeo Alessandro E C. Sas,Aziende CerveteriErboristerie CerveteriDentisti Cerveteri,"Via S. Pietro, 1, Cerveteri RM, Italia  ",682412,06 994 3563,,,
Beauty Ciak Center Di Flavio Santolamazza,Aziende CerveteriParrucchieri Cerveteri,"Via Settevene Palo, 136, 00052 Cerveteri RM, Italia  ",679444,06 994 3424,,,
Prodotti Finanziari Area Prodotti Finanza,Aziende CerveteriIstituti finanziari CerveteriUffici postali Cerveteri,"Via Settevene Palo, 214, 00052 Cerveteri RM, Italia  ",678165,06 994 1565,,,
Shoes & Sport Di Nazzarena Ilari,Aziende CerveteriNegozi CerveteriNegozi di scarpe Cerveteri,"Viale Alessandro Manzoni, 20, Cerveteri RM, Italia  ",677352,06 994 3457,,,
Fiorini Sergio,Aziende CerveteriNegozi CerveteriNegozi di scarpe Cerveteri,"Via S. Maria, 16, Cerveteri RM, Italia  ",677353,06 994 3034,,,
Ruzzetta Arredamenti S.R.L.,Aziende CerveteriNegozi CerveteriNegozi di casalinghi CerveteriNegozi di arredamento Cerveteri,"Via Necropoli, 18, Cerveteri RM, Italia  ",675400,06 995 2332,,,
Comune Di Cerveteri,Municipi CerveteriUffici Comunali CerveteriAziende Cerveteri,"Piazza Risorgimento, 1, Cerveteri RM, Italia  ",670523,06 896301,,,
Chicco,Aziende CerveteriNegozi CerveteriNegozi di Abbigliamento Cerveteri,"Via Settevene Palo, 61, 00052 Cerveteri, Italia  ",668419,06 994 0654,,,
Comune Di Cerveteri,Municipi CerveteriUffici Comunali CerveteriAziende Cerveteri,"Piazza Risorgimento, 1, Cerveteri RM, Italia  ",663734,06 896301,,,
Giardini della Rimembranza,Aziende CerveteriParchi Cerveteri,"Cerveteri RM, Italia  ",657920,,,,
Parco Pubblico della Legnara,Aziende CerveteriParchi Cerveteri,"Città Metropolitana di Roma, Italia  ",657921,,,,
"Parco ""Martiri delle Foibe""",Aziende CerveteriParchi Cerveteri,"Cerveteri RM, Italia  ",657922,,,,
Oratorio S. Michele Arcangelo,Aziende CerveteriParchi Cerveteri,"Via Armando Diaz, 00052 Cerveteri RM, Italia  ",657919,,,,
Immobiliare 2A,Aziende CerveteriAgenzie Immobiliari Cerveteri,"Via Settevene Palo, 145, 00052 Cerveteri RM, Italia  ",647076,06 994 3026,,,
ag. immobiliare cerveteri-cerenova srl,Aziende CerveteriIstituti finanziari CerveteriAgenzie Immobiliari Cerveteri,"Via Ceretana, 53, 00052 Cerveteri RM, Italia  ",647077,06 994 3284,,,
Solo Affitti Cerveteri,Aziende CerveteriAgenzie Immobiliari Cerveteri,"Via Ceretana, 8, Cerveteri RM, Italia  ",647078,06 994 2932,,,
frimm cerveteri cerenova ladispoli,Aziende CerveteriAgenzie Immobiliari Cerveteri,"Via delle Mura Castellane n 22, 00052 Cerveteri RM, Italia  ",647075,06 9908 3517,,,
Pitture Edili Di Contigliozzi Roberto,Aziende CerveteriImbianchini Cerveteri,"Via Monte Grappa, 15, 00052 Cerveteri RM, Italia  ",644346,335 837 9476,,,
Notaio Vincenzo Ferrara,Aziende CerveteriAvvocati Cerveteri,"Via Roma, 6, 00052 Cerveteri RM, Italia  ",642427,06 324 1836,,,
Banco Metalli Italiano Spa,Aziende CerveteriIstituti finanziari CerveteriBanche Cerveteri,"Via delle Mura Castellane, 26, Cerveteri RM, Italia  ",641452,06 9955 1973,,,
Clo's Coffee Bar,Aziende CerveteriOsterie CerveteriBar CerveteriTrattorie Cerveteri,"Via Martiri delle Foibe, 00052 Cerveteri RM, Italia  ",637936,,,,
Caereplastic di Quirino Tantari,Aziende CerveteriNegozi Cerveteri,"Via Madonna dei Canneti, 32, 00052 Cerveteri RM, Italia  ",635226,340 533 8687,,,
Dr. Segnini Daniele Dr. Segnini Daniele,Aziende CerveteriOspedali Cerveteri,"Via Rosa Calabresi, 10, 00052 Cerveteri RM, Italia  ",630693,06 9955 1304,,,
Residenza Napoleone III,Aziende CerveteriAlberghi Cerveteri,"Palazzo Ruspoli, Piazza Santa Maria, 00052 Roma, Italia  ",596471,06 6880 8083,,,
A casa di Anna,Aziende CerveteriAlberghi Cerveteri,"Largo della Boccetta, 5, 00052 Cerveteri RM, Italia  ",596469,392 954 4940,,,
Cocoon Residenze,Aziende CerveteriAlberghi Cerveteri,"Via Settevene Palo, 162, Cerveteri RM, Italia  ",596470,06 9955 1528,,,
La Boccetta Cornici,Aziende CerveteriNegozi Cerveteri,"Largo della Boccetta, 2, 00052 Cerveteri RM, Italia  ",590976,06 995 2243,,,
agenzia immobiliare s.r.l.,Aziende CerveteriIstituti finanziari CerveteriAgenzie Immobiliari Cerveteri,"Via delle Mura Castellane, 46/A, 00052 Cerveteri RM, Italia  ",590941,06 994 1849,,,
Unicredit,Aziende CerveteriBancomat CerveteriIstituti finanziari CerveteriBanche Cerveteri,"Via Settevene Palo, 217, 00052 Cerveteri RM, Italia  ",590942,06 8782 7005,,,
Farmacia Comunale 5,Aziende CerveteriErboristerie CerveteriNegozi CerveteriFarmacie Cerveteri,"Via Settevene Palo, 81, Cerveteri RM, Italia  ",590456,06 9955 0155,,,
Tranquillity Wellness Zone,Aziende CerveteriErboristerie CerveteriPalestre Cerveteri,"Via Antonio Ricci, 11, Cerveteri RM, Italia  ",584619,320 765 3584,,,
Amministrazione Provinciale Di Roma,Aziende CerveteriScuole Cerveteri,"Piazza S. Maria, 14, Cerveteri RM, Italia  ",583047,06 995 1661,,,
Assi. Fin. Leasing E Servizi Di Lucenzi Rita,Aziende CerveteriAgenzie di assicurazione Cerveteri,"Via delle Mura Castellane, 40, Cerveteri Roma, Italia  ",574536,06 995 2515,,,
Subagenzia Allianz Lloyd Adriatico,Aziende CerveteriAgenzie di assicurazione Cerveteri,"Via Gargan Livry, 95/D, 00052 Cerveteri Roma, Italia  ",574537,06 995 1111,,,
Studio Di Consulenza Assicurativa Di Bellusci Fabio,Aziende CerveteriAgenzie di assicurazione Cerveteri,"Via Necropoli, 16, Cerveteri Roma, Italia  ",574533,06 994 2954,,,
Filzi Roberto,Aziende CerveteriAgenzie di assicurazione Cerveteri,"Via Umbria, 1, 00052 Cerveteri Roma, Italia  ",574534,06 994 1978,,,
Tirabassi Pier Giulio,Aziende CerveteriAgenzie di assicurazione Cerveteri,"Via Ceretana, 47, Cerveteri Roma, Italia  ",574535,06 9955 1964,,,
Santangelo Federico,Aziende CerveteriAgenzie di assicurazione Cerveteri,"Via Monte Zebio, 6, Cerveteri Roma, Italia  ",574531,06 994 2719,,,
Panzini Angelo,Aziende CerveteriAgenzie di assicurazione Cerveteri,"Via Settevene Palo, 228, 00052 Cerveteri Roma, Italia  ",574532,06 994 1059,,,
Cappellone Davide,Aziende CerveteriBar Cerveteri,"Via Ceretane, 49/D/E, Cerveteri Roma, Italia  ",572787,06 994 3320,,,
Bar I Gemelli,Aziende CerveteriBar Cerveteri,"Via Piave, 31, Cerveteri Roma, Italia  ",572788,06 994 2564,,,
K & C.srl,Aziende CerveteriOsterie CerveteriNegozi CerveteriNegozi di Alimentari Cerveteri,"Viale Alessandro Manzoni, 78, Cerveteri Roma, Italia  ",571741,06 995 3534,,,
Merlini Paolo,Aziende CerveteriOsterie CerveteriNegozi Cerveteri,"Piazza San Pietro, 1, 00052 Cerveteri Roma, Italia  ",571742,06 994 2569,,,
L'angolo del Benessere Cerveteri,Aziende CerveteriErboristerie CerveteriTerme Cerveteri,"Via Martiri delle Foibe, 55, Cerveteri RM, Italia  ",567243,06 3105 6641,,,
Garbini Roberto,Aziende CerveteriErboristerie Cerveteri,"Via Gargan Livry, 90, Cerveteri Roma, Italia  ",561138,06 994 3329,,,
Sciommeri Claudio''Dentagylla Centro Odontoprotesico '',Aziende CerveteriErboristerie Cerveteri,"Via delle Mura Castellane, 20, Cerveteri Roma, Italia  ",541655,06 994 0017,,,
ottica occhiali e occhiali,Aziende CerveteriErboristerie CerveteriNegozi Cerveteri,"Via Piave, 11, Cerveteri Roma, Italia  ",541656,06 994 2468,,,
Studio Cenciarini,Aziende CerveteriErboristerie Cerveteri,"Viale Giacomo Matteotti, 5, Cerveteri Roma, Italia  ",541653,389 118 2930,,,
Lucarini Alduino,Aziende CerveteriErboristerie Cerveteri,"Via Monte Zebio, 41, Cerveteri Roma, Italia  ",541654,06 994 3396,,,
Ars Medica Di Pierantozzi Fabrizio E Stefania Snc,Aziende CerveteriErboristerie CerveteriNegozi Cerveteri,"Via Settevene Palo, 267, Cerveteri Roma, Italia  ",541652,06 994 0067,,,
Autonoleggio Molinari,Aziende CerveteriNegozi CerveteriConcessionarie Auto Cerveteri,"Via Morella Fontana, 28, Cerveteri Roma, Italia  ",539835,347 890 8319,,,
Bar Manzoni,Aziende CerveteriBar Cerveteri,"Viale Alessandro Manzoni, 71, Cerveteri Roma, Italia  ",533432,06 9955 1523,,,
Bar Mezzopane,Aziende CerveteriBar Cerveteri,"Via Settevene Palo, 167, Cerveteri Roma, Italia  ",533433,06 994 3161,,,
La Chiccheria,Aziende CerveteriOsterie CerveteriNegozi CerveteriBar Cerveteri,"Piazza Aldo Moro, Cerveteri Roma, Italia  ",533434,,,,
Bar Del Gufo,Aziende CerveteriBar Cerveteri,"Via Matteotti Giacomo, 28, Cerveteri Roma, Italia  ",533431,06 995 2545,,,
Pizza Ciani,Aziende CerveteriRistoranti CerveteriOsterie Cerveteri,"Via Giulio Valeri, 3, Cerveteri Roma, Italia  ",528980,06 994 3776,,,
Caronte Wine Bar,Aziende CerveteriRistoranti CerveteriOsterie CerveteriBar Cerveteri,"Via Ceretana, 39, Cerveteri Roma, Italia  ",528981,328 277 4895,,,
Fraschetta Ceretana,Aziende CerveteriRistoranti CerveteriOsterie Cerveteri,"Via Ceretana, 16, Cerveteri Roma, Italia  ",528982,338 215 3963,,,
Punto Informazione Turistica,Aziende Cerveteri,"Piazza Aldo Moro, Cerveteri Roma, Italia  ",523702,06 9955 2637,,,
Trattoria Da Regina,Aziende CerveteriRistoranti CerveteriOsterie Cerveteri,"Via Sant'Antonio, 1, Bracciano Roma, Italia  ",520662,06 9980 4822,,,
Societa' Agricola Monte Abatone A.R.L.,Aziende CerveteriOsterie Cerveteri,"Via Settevene Palo, Cerveteri Roma, Italia  ",520664,06 994 2937,,,
Glamorosa di US Atelier Sposa,Aziende CerveteriNegozi CerveteriNegozi di Abbigliamento Cerveteri,"Piazza Risorgimento, 8, Cerveteri Roma, Italia  ",515580,,,,
Glamorosa,Aziende CerveteriNegozi CerveteriNegozi di Abbigliamento Cerveteri,"Piazza Risorgimento, 8/9, Cerveteri Roma, Italia  ",515581,06 994 0731,,,
Di Candeloro Maria Pia,Aziende CerveteriNegozi CerveteriNegozi di Abbigliamento Cerveteri,"Via Armando Diaz, 23, Cerveteri Roma, Italia  ",515577,06 994 1105,,,
Sconto Moda Di Caprio Raffaela,Aziende CerveteriNegozi CerveteriNegozi di Abbigliamento Cerveteri,"Via Settevene Palo, 80, Roma, Italia  ",515578,06 994 1459,,,
Papi Stefania,Aziende CerveteriNegozi CerveteriNegozi di Abbigliamento Cerveteri,"Via Mario Pelagalli, 99, Cerveteri Roma, Italia  ",515579,06 9955 1992,,,
Extreme Brasil Di Scrocchio Andrigetto Lisia Individuale,Aziende CerveteriNegozi CerveteriNegozi di Abbigliamento Cerveteri,"Via Livry Gargan, 5, Cerveteri Roma, Italia  ",515574,06 995 1795,,,
Tabaccheria Moda Badini,Aziende CerveteriNegozi CerveteriNegozi di Abbigliamento Cerveteri,"Piazza San Pietro, 4, Cerveteri Roma, Italia  ",515575,06 994 2572,,,
Mf2 Di Ferretti Massimo E C. Snc,Aziende CerveteriNegozi CerveteriNegozi di Abbigliamento Cerveteri,"Via Ceretana, 47, Cerveteri Roma, Italia  ",515576,06 994 2375,,,
Bevacqua Maria Carmela,Aziende CerveteriNegozi CerveteriNegozi di Abbigliamento Cerveteri,"Via delle Mura Castellane, 12, Cerveteri Roma, Italia  ",515570,06 994 0030,,,
Capriccio Snc,Aziende CerveteriNegozi CerveteriNegozi di Abbigliamento Cerveteri,"Via Sant'Angelo, 19, Cerveteri Roma, Italia  ",515572,06 995 1277,,,
Esigibili E Lucci Consorzitalia S.N.C.,Aziende CerveteriNegozi CerveteriNegozi di casalinghi Cerveteri,"Via Settevene Palo, Cerveteri Roma, Italia  ",514522,06 9955 9127,,,
Asso di Fiori S.r.l.,Aziende CerveteriNegozi CerveteriNegozi di casalinghi Cerveteri,"Via Settevene Palo, 113, Cerveteri, Roma, Italy  ",514519,06 994 3858,,,
Azienda,Aziende CerveteriNegozi CerveteriNegozi di casalinghi Cerveteri,"Via Settevene Palo, 196, Cerveteri Roma, Italia  ",514520,06 9724 8278,,,
Centro Tende Di Zanfino Monica,Aziende CerveteriNegozi CerveteriNegozi di casalinghi Cerveteri,"Via Madonna dei Canneti, 6, Cerveteri Roma, Italia  ",514521,06 994 1071,,,
Catalani Rita,Aziende CerveteriIstituti finanziari Cerveteri,"Via Livry Gargan, Cerveteri Roma, Italia  ",512951,06 9955 1983,,,
Servizi Cia Roma Srl,Aziende CerveteriIstituti finanziari Cerveteri,"Via Carlo Cavalieri, 1, Cerveteri Roma, Italia  ",512948,06 994 1478,,,
Personal Planner,Aziende CerveteriIstituti finanziari Cerveteri,"Via Villy de Luca, 1, Cerveteri Roma, Italia  ",512949,06 9934 5534,,,
Centro Servizi Sas Di Torsi Mario & C,Aziende CerveteriIstituti finanziari Cerveteri,"Via S. Angelo, 37, Cerveteri Roma, Italia  ",512950,06 995 1505,,,
Scuola Dell'Infanzia Maria Ss.Del Carmelo,Aziende CerveteriScuole Cerveteri,"Via dell'Ospedale, Cerveteri Roma, Italia  ",506399,06 995 1217,,,
Scuola Elementare Statale Giovanni Cena,Aziende CerveteriScuole Cerveteri,"Cerveteri Roma, Italia  ",506397,,,,
Centro Studi Le Pleiadi,Aziende CerveteriScuole Cerveteri,"Via Etruria, 45, Cerveteri Roma, Italia  ",506398,06 9684 4309,,,
Flamini Disinfestazioni di Flamini Gabriele,Aziende CerveteriNegozi CerveteriNegozi di casalinghi Cerveteri,"Via Armando Diaz, 79, Cerveteri Roma, Italia  ",487929,06 994 2724,,,
SOFTWAR di Pierpaolo Baldazzi,Aziende CerveteriNegozi CerveteriNegozi di Abbigliamento Cerveteri,"Via S. Maria, 20, Cerveteri Roma, Italia  ",487930,06 994 2248,,,
Trogu Giuseppe,Aziende CerveteriNegozi Cerveteri,"Via Necropoli, 15, Cerveteri Roma, Italia  ",487931,06 994 2364,,,
SOGNAFLEX di Menchini Alessia,Aziende CerveteriNegozi CerveteriNegozi di casalinghi CerveteriNegozi di arredamento Cerveteri,"Via Settevene Palo, 245, Cerveteri, Roma, Italy  ",487926,06 9724 2531,,,
CAERECOM S.A.S.,Aziende CerveteriNegozi CerveteriNegozi di elettronica Cerveteri,"Via Lombardia, 20, Cerveteri Roma, Italia  ",487927,349 885 5670,,,
De Caro Design,Aziende CerveteriNegozi CerveteriNegozi di casalinghi Cerveteri,"Via Giovanni Pascoli, 12, Cerveteri Roma, Italia  ",487928,333 977 8413,,,
Punto Parquet,Aziende CerveteriNegozi CerveteriNegozi di casalinghi CerveteriNegozi di arredamento Cerveteri,"Via Armando Diaz, 7, Cerveteri Roma, Italia  ",487923,06 995 1472,,,
Computel Assistenza e Vendita Computer e Telefonia,Aziende CerveteriNegozi CerveteriNegozi di elettronica Cerveteri,"Via Settevene Palo, 136, Cerveteri Roma, Italia  ",487924,345 334 4572,,,
ARAN CUCINE | Ricci Arredamenti,Aziende CerveteriNegozi CerveteriNegozi di casalinghi Cerveteri,"Via Settevene Palo, 229, Cerveteri Roma, Italia  ",487925,06 995 2051,,,
Necropoli Etrusca del Sorbo,Aziende CerveteriMusei Cerveteri,"Cerveteri Roma, Italia  ",483884,,,,
Armeria Stella Sporting,Aziende CerveteriNegozi Cerveteri,"Via Giacomo Matteotti, 30, Cerveteri Roma, Italia  ",454545,06 994 2716,,,
Gioielleria Bottega Orafa,Aziende CerveteriNegozi CerveteriGioiellerie Cerveteri,"Via Agillina, 15, Cerveteri Roma, Italia  ",443366,06 994 3195,,,
Azienda Unità Sanitaria Locale Roma F2 - Sede Distrettuale,Aziende CerveteriOspedali Cerveteri,"Via Madre Maria Crocifissa Curcio, 1-3, Cerveteri Roma, Italia  ",442451,06 9666 9733,,,
Pezzi Di Pizza,Aziende CerveteriRistoranti CerveteriOsterie Cerveteri,"Piazza Aldo Moro, 6, Cerveteri, Rome, Italy  ",420660,06 995 1877,,,
Pasticceria Fantauzzo,Aziende CerveteriOsterie CerveteriNegozi CerveteriPanetterie Cerveteri,"Via della Necropoli, Cerveteri, Rome, Italy  ",418556,,,,
Quetzal Caffe' di Trovato Federica E C SNC,Aziende CerveteriRistoranti CerveteriOsterie CerveteriBar Cerveteri,"Via delle Mura Castellane, 56, Cerveteri Roma, Italia  ",418551,06 9955 2640,,,
Lavanderia Roberta,Aziende CerveteriLavanderie Cerveteri,"Via Armando Diaz, 8, Cerveteri, Rome, Italy  ",411108,393 951 4255,,,
Supermercato Margherita Conad,Aziende CerveteriOsterie CerveteriNegozi CerveteriNegozi di Alimentari Cerveteri,"Piazza Antonio Gramsci, 5, Cerveteri, Rome, Italy  ",408414,06 994 2762,,,
Chiesa Madonna dei Canneti,Aziende CerveteriChiese CerveteriLuoghi di culto Cerveteri,"Cerveteri, Rome, Italy  ",406378,,,,
Chiesa di San Michele Arcangelo,Aziende CerveteriChiese CerveteriLuoghi di culto Cerveteri,"Via dell'Ospedale, Cerveteri, Rome, Italy  ",406375,,,,
Chiesa di Sant'Antonio Abate,Aziende CerveteriChiese CerveteriLuoghi di culto Cerveteri,"Vicolo Bastioni, Cerveteri, Rome, Italy  ",406377,,,,
Studio Medico Dott. Giuseppe Donato,Aziende CerveteriErboristerie CerveteriMedici Cerveteri,"Via Rosa Calabresi, 10, Cerveteri, Rome, Italy  ",405032,06 9955 1304,,,
Agricola Caere Di Donnini Fiorenzo & C. Snc,Aziende CerveteriOsterie Cerveteri,"Viale Alessandro Manzoni, 32, Cerveteri, Rome, Italy  ",373261,06 994 1502,,,
Molino Coletta & C. Snc,Aziende CerveteriOsterie Cerveteri,"Via Ceretana, 4, Cerveteri, Rome, Italy  ",373262,06 994 1994,,,
Pasticceria Rosati,Aziende CerveteriOsterie CerveteriNegozi CerveteriPanetterie Cerveteri,"Via Settevene Palo, 71, Cerveteri, Roma, Italy  ",373263,06 994 3256,,,
bar pasticceria la nota mancante,Aziende CerveteriOsterie CerveteriNegozi CerveteriBar Cerveteri,"Via Mario Pelagalli, 55, Cerveteri, Rome, Italy  ",373258,06 995 1640,,,
Trattoria dei Cacciatori,Aziende CerveteriRistoranti CerveteriOsterie Cerveteri,"Via Antonio Ricci, 8-9, Cerveteri, Rome, Italy  ",373259,06 994 2563,,,
C.C.M. Centro Carni Mastropietro S.R.L.,Aziende CerveteriOsterie CerveteriNegozi Cerveteri,"Via Settevene Palo, Cerveteri, Rome, Italy  ",373260,06 994 1028,,,
Mille800 Stazione del Gusto,Aziende CerveteriRistoranti CerveteriOsterie Cerveteri,"Via Antonio Ricci, 9, Cerveteri, Rome, Italy  ",373255,06 9955 1565,,,
Elio Sunrise Allevamento Staffordshire Bull Terrier ENCI/FCI,Aziende CerveteriOsterie Cerveteri,"Via A Marini, 79, Cerenova Cerveteri, Rome, Italy  ",373256,327 745 1480,,,
Ceri S.r.l.,Aziende CerveteriOsterie Cerveteri,"Via Settevene Palo, Cerveteri, Rome, Italy  ",373257,06 9920 7178,,,
TotalErg,Aziende CerveteriDistributori di benzina Cerveteri,"Via Mura Castellane, Cerveteri Roma, Italia  ",363479,,,,
Necropoli Etrusca Della Banditaccia,Aziende CerveteriMusei Cerveteri,"Piazza Mario Moretti, Cerveteri Roma, Italia  ",352832,06 994 0001,,,
Chiesa di Santa Maria Maggiore,Aziende CerveteriChiese CerveteriLuoghi di culto Cerveteri,"Piazza S. Maria, 14, Cerveteri Roma, Italia  ",352833,,,,
Tuttoufficio Snc Di Biancalana Simona E C.,Aziende Cerveteri,"Largo Almuneacar, 8, Roma, Italia  ",352834,06 994 1134,,,
Eco Store Cerveteri,Aziende Cerveteri,"Via Settevene Palo, 134, Cerveteri Roma, Italia  ",352829,06 995 3247,,,
Galatour S.R.L.,Aziende Cerveteri,"Piazza Aldo Moro, 17, Cerveteri Roma, Italia  ",352830,06 994 2861,,,
Associazione Pro-Loco Cerveteri,Aziende Cerveteri,"Piazza Risorgimento, 19, Cerveteri Roma, Italia  ",352831,06 9955 1971,,,
Necropoli Etrusca Della Banditaccia,Aziende CerveteriMusei Cerveteri,"Necropoli Etrusca Della Banditaccia, Piazza Mario Moretti, 00052 Cerveteri RM, Italia  ",352824,,,,
Fedeli,Aziende CerveteriNegozi CerveteriNegozi di Abbigliamento Cerveteri,"P.zza Dante 4, Bracciano Roma, Italia  ",352826,06 9980 4183,,,
Cinema Moderno,Aziende CerveteriCinema Cerveteri,"Via Armando Diaz, 29, Cerveteri Roma, Italia  ",352828,06 994 1525,,,
La Boutique del Fiore,Aziende CerveteriNegozi CerveteriFiorai Cerveteri,"Via Necropoli, 6, Cerveteri Roma, Italia  ",352750,06 994 0033,,,
Ufficio Postale di Cerveteri,Aziende CerveteriIstituti finanziari CerveteriUffici postali Cerveteri,"Via Settevene di Palo, 214, Cerveteri Roma, Italia  ",342914,06 995 5601,,,
Studio Legale Associato Belardinelli Flacchi,Aziende CerveteriAvvocati Cerveteri,"Via Antonio Ricci, 11, Cerveteri Roma, Italia  ",340359,06 995 1774,,,
Caramia Avv. Pietro,Aziende CerveteriAvvocati Cerveteri,"Via Ceretana, 49, Cerveteri Roma, Italia  ",340360,06 994 2979,,,
Marconi Avv. Carla,Aziende CerveteriAvvocati Cerveteri,"Via Ceretana, 12, Cerveteri Roma, Italia  ",340357,06 994 3755,,,
Studio Legale Iazzi Maria Alessandra,Aziende CerveteriAvvocati Cerveteri,"Via Roma, 24, Cerveteri Roma, Italia  ",340358,06 995 1388,,,
Polizia Locale,Aziende CerveteriPolizia Cerveteri,"Via Friuli, 7, Cerveteri Roma, Italia  ",333264,06 994 2586,,,
Morasca Margherita,Aziende CerveteriAlberghi Cerveteri,"Strada Ix, Cerveteri, RM 00052, Italia  ",329314,06 9920 7215,,,
Villa Degli Etruschi,Aziende CerveteriAlberghi Cerveteri,"Via Sant'Angelo, 85, Cerveteri Roma, Italia  ",329311,06 995 1007,,,
Fenicottero Rosa Snc di Giordano Fausto C.,Aziende CerveteriAlberghi Cerveteri,"Via Roma, 1, Cerveteri Roma, Italia  ",329312,06 9907 9126,,,
Parcheggio del Cimitero,Aziende CerveteriParcheggi Cerveteri,"Via Francesco Rosati, Cerveteri Roma, Italia  ",325074,,,,
ComputerTechnology.IT,Aziende CerveteriNegozi CerveteriNegozi di elettronica Cerveteri,"Via Armando Diaz, 32, Cerveteri Provincia di Roma, Italia  ",322185,06 8956 7789,,,
A.T. Elettronica,Aziende CerveteriNegozi CerveteriNegozi di casalinghi CerveteriNegozi di elettronica Cerveteri,"Via Piave, 45, Cerveteri, Provincia di Roma, Italy  ",322186,06 994 3416,,,
Polenta Vincenza,Aziende CerveteriBar Cerveteri,"4 Piazza Dei Tarquini, Cerveteri, RM 00052, Italia  ",296940,06 995 1183,,,
Lamanna Carla,Aziende CerveteriBar Cerveteri,"Cerveteri Roma, Italia  ",296941,06 990 5393,,,
Jolly Bar,Aziende CerveteriRistoranti CerveteriOsterie CerveteriNegozi CerveteriBar Cerveteri,"Via S. Maria, 24, Cerveteri Roma, Italia  ",296936,06 994 0005,,,
I Gemelli Di Zinno Mario E Ezio E C. Snc,Aziende CerveteriBar Cerveteri,"Via Piave, 31, Cerveteri Roma, Italia  ",296937,06 994 2564,,,
Bar la fornace,Aziende CerveteriBar Cerveteri,"Via Livry Gargan, 1, Cerveteri Roma, Italia  ",296938,06 994 3320,,,
Bar Magia Di Bonucci Anna,Aziende CerveteriBar Cerveteri,"Viale Alessandro Manzoni, 68, Cerveteri Roma, Italia  ",296939,06 994 1288,,,
Mito S.A.S. Di Vittoria Darelli E C.,Aziende CerveteriBar Cerveteri,"Largo Almunecar, 11, Cerveteri Roma, Italia  ",296933,06 994 1449,,,
Di Berardino Orietta,Aziende CerveteriBar Cerveteri,"Piazza Risorgimento, 16, Cerveteri Roma, Italia  ",296934,06 994 0023,,,
Piccardi Maria,Aziende CerveteriBar Cerveteri,"Via Settevene Palo, 332, Cerveteri Roma, Italia  ",296935,06 994 1073,,,
Fantasia 2003 Sas Di Ghelarducci Barbara & C.,Aziende CerveteriBar Cerveteri,"Piazza Risorgimento, Cerveteri Roma, Italia  ",296932,06 994 3140,,,
De Mattia Fabio Traslochi,Aziende CerveteriNegozi CerveteriNegozi di casalinghi CerveteriTraslochi Cerveteri,"Viale Alessandro Manzoni, Italia  ",292303,338 772 7743,,,
Hobby Garden Zoo,Aziende CerveteriNegozi CerveteriNegozi di animali Cerveteri,"Via Settevene Palo, 272, Cerveteri Roma, Italia  ",287063,06 994 1414,,,
Associazione Sportiva Dimensione Danza 2000,Aziende CerveteriScuole Cerveteri,"Via Armando Diaz, 10, Cerveteri Roma, Italia  ",264509,06 994 3953,,,
Scuola Materna Montessori,Aziende CerveteriScuole Cerveteri,"Via Settevene Palo, Cerveteri Roma, Italia  ",264510,06 994 2632,,,
Liceo Scientifico Statale Sandro Pertini,Aziende CerveteriScuole Cerveteri,"Via Settevene Palo, Cerveteri Roma, Italia  ",264508,06 995 1259,,,
Poste Italiane Spa,Aziende CerveteriIstituti finanziari CerveteriUffici postali Cerveteri,"Via Settevene Palo, 90, Cerveteri Roma, Italia  ",248100,06 995 5601,,,
City Poste Di Scarpellini Laura,Aziende CerveteriIstituti finanziari CerveteriUffici postali Cerveteri,"Via Francesco Rosati, 16, Cerveteri Roma, Italia  ",248098,06 994 2806,,,
Poste Italiane,Uffici Comunali CerveteriAziende CerveteriIstituti finanziari CerveteriUffici postali CerveteriCommercialisti Cerveteri,"Via Settevene Palo, 214, Cerveteri Roma, Italia  ",248099,06 9955 6020,,,
De Santis Paola,Aziende CerveteriNegozi CerveteriFiorai Cerveteri,"Via Mario Pelagalli, Cerveteri Roma, Italia  ",246830,06 995 1179,,,
Ranieri Marisa,Aziende CerveteriNegozi CerveteriFiorai Cerveteri,"Via Necropoli, 6, Cerveteri Roma, Italia  ",246831,06 994 0033,,,
La Primavera Fiori E Piante,Aziende CerveteriNegozi CerveteriFiorai Cerveteri,"Via Piave, 10, Cerveteri Roma, Italia  ",246829,06 995 1056,,,
Giacobbi Vittorio,Aziende CerveteriMeccanici Auto Cerveteri,"STRADA 118, Cerveteri, RM 00052, Italia  ",243005,06 9907 9165,,,
Chiarideo Carmelino,Aziende CerveteriMeccanici Auto Cerveteri,"Via Torquato Tasso, 3, Cerveteri Roma, Italia  ",243006,06 994 2674,,,
Quadrifoglio Di Di Benedetto Marco E Massimo E C.,Aziende CerveteriMeccanici Auto Cerveteri,"Km. 18.400 Via Settevene Palo, Cerveteri, RM 00052, Italia  ",243007,06 994 9652,,,
Officina Gnazi Di Massimo Virgili,Aziende CerveteriMeccanici Auto Cerveteri,"Km. 18.400 Via Settevene Palo, Cerveteri, RM 00052, Italia  ",243002,06 994 9366,,,
S.A.R.I. 2000 Societa' Autoricambi Italiana Srl,Aziende CerveteriNegozi CerveteriMeccanici Auto Cerveteri,"Viale Alessandro Manzoni, 51, Cerveteri Roma, Italia  ",243003,06 994 3592,,,
Benedetti Girolamo,Aziende CerveteriMeccanici Auto Cerveteri,"Viale Alessandro Manzoni, 51, Cerveteri Roma, Italia  ",243004,06 995 3147,,,
Autofficina Gta Di Avversari Simone & C. S.A.S.,Aziende CerveteriMeccanici Auto Cerveteri,"Via Fontana Morella, 9, Cerveteri Roma, Italia  ",243001,06 994 3745,,,
Museo Nazionale Cerite Claudia Ruspoli,Aziende CerveteriMusei Cerveteri,"Via S. Maria, 1, Cerveteri Roma, Italia  ",235105,06 994 1354,,,
Grillo Maria Cristina,Aziende CerveteriErboristerie CerveteriMedici Cerveteri,"Via Livry Gargan, Cerveteri Roma, Italia  ",233945,06 9955 2820,,,
Dott Fausto Todaro Fausto,Aziende CerveteriErboristerie CerveteriMedici CerveteriDentisti Cerveteri,"Viale Alessandro Manzoni, 82, Cerveteri Roma, Italia  ",233943,06 995 1873,,,
Ungaro Dr. Vincenzo,Aziende CerveteriErboristerie CerveteriMedici Cerveteri,"Via Piave, 30, Cerveteri Roma, Italia  ",233944,06 995 2390,,,
Brazzini Dr. Christian - Rapagnetta Dr. Antonio,Aziende CerveteriErboristerie CerveteriMedici Cerveteri,"Via Vittorio Veneto, 2B, Cerveteri Roma, Italia  ",233940,06 9955 0980,,,
Frattale Dr. Ezio,Aziende CerveteriErboristerie CerveteriMedici CerveteriDentisti Cerveteri,"Via Settevene Palo, 81, Cerveteri Roma, Italia  ",233941,06 995 3262,,,
Danese Galano Clemente,Aziende CerveteriErboristerie CerveteriMedici CerveteriDentisti Cerveteri,"Via S. Angelo, 1, Cerveteri Roma, Italia  ",233942,06 995 1282,,,
Fiammella Dr. Massimo,Aziende CerveteriErboristerie CerveteriMedici CerveteriDentisti Cerveteri,"Via delle Mura Castellane, 28, Cerveteri Roma, Italia  ",233938,06 995 3089,,,
Dottori Antonio,Aziende CerveteriErboristerie CerveteriMedici Cerveteri,"Largo Guido Rossa, 22, Cerveteri Roma, Italia  ",233939,06 995 3190,,,
Spano Marco,Aziende CerveteriErboristerie CerveteriMedici Cerveteri,"Via Fontana Morella, 8, Cerveteri Roma, Italia  ",233935,06 9955 1527,,,
Bombardieri Dr. Nicola,Aziende CerveteriErboristerie CerveteriMedici CerveteriDentisti Cerveteri,"Viale Alessandro Manzoni, 42, Cerveteri Roma, Italia  ",233936,06 995 1572,,,
Di Lucia Dr. Vittorio,Aziende CerveteriErboristerie CerveteriMedici CerveteriDentisti Cerveteri,"Via Settevene Palo, Cerveteri Roma, Italia  ",233937,06 995 2326,,,
Banca Fideuram Spa,Aziende CerveteriIstituti finanziari CerveteriBanche Cerveteri,"Cerveteri Roma, Italia  ",222462,,,,
Unicredit Spa,Aziende CerveteriIstituti finanziari CerveteriBanche Cerveteri,"Via Settevene Palo, 217, Cerveteri Roma, Italia  ",222463,06 8782 7005,,,
Intesa Sanpaolo Spa,Aziende CerveteriIstituti finanziari CerveteriBanche Cerveteri,"Via Armando Diaz, 10, Cerveteri Roma, Italia  ",222459,06 9955 2917,,,
Banca Di Credito Cooperativo Di Roma Ag. 46,Aziende CerveteriIstituti finanziari CerveteriBanche Cerveteri,"33 Viale Manzoni Alessandro, Cerveteri, RM 00052, Italia  ",222460,06 994 3507,,,
Cassa Risparmio Di Civitavecchia Agenzia Di Cerveteri,Aziende CerveteriBancomat CerveteriIstituti finanziari CerveteriBanche Cerveteri,"Via Armando Diaz, 10, Cerveteri Roma, Italia  ",222461,06 995 5291,,,
Banca Monte dei Paschi di Siena,Aziende CerveteriBancomat CerveteriIstituti finanziari CerveteriBanche Cerveteri,"Via Carlo Goldoni, 4/B, Cerveteri Roma, Italia  ",222458,06 9955 1229,,,
Neverland Di D'Amico Pasquale,Aziende CerveteriRistoranti CerveteriOsterie Cerveteri,"Viale Alessandro Manzoni, 44, Cerveteri Roma, Italia  ",217885,06 995 1099,,,
Il Braciere,Aziende CerveteriRistoranti CerveteriOsterie Cerveteri,"Via Settevene Palo, Cerveteri Roma, Italia  ",217886,06 994 2718,,,
Errebi Di Paolo Cordeschi,Aziende CerveteriRistoranti CerveteriOsterie Cerveteri,"Via Armando Diaz, 17, Cerveteri Roma, Italia  ",217882,06 9992 4277,,,
Sfoglia D'Oro Di Di Giuseppe Enrica & C. Sas,Aziende CerveteriRistoranti CerveteriOsterie CerveteriNegozi Cerveteri,"Via S. Angelo, 22, Cerveteri Roma, Italia  ",217883,06 995 2052,,,
Bugli Angelo,Aziende CerveteriRistoranti CerveteriOsterie Cerveteri,"Via Bastioni, 46, Cerveteri Roma, Italia  ",217884,06 994 1507,,,
Trattoria Zi Maria,Aziende CerveteriRistoranti CerveteriOsterie Cerveteri,"via Manzana, 2, Cerveteri Roma, Italia  ",217878,06 9907 9029,,,
Ristorante Pizzeria La Contrada,Aziende CerveteriRistoranti CerveteriOsterie Cerveteri,"Via Giulio Valeri, 11, Cerveteri Roma, Italia  ",217879,06 994 3203,,,
Trattoria Del Castello Srl,Aziende CerveteriRistoranti CerveteriOsterie Cerveteri,"Via Del Castello, 2, Cerveteri Roma, Italia  ",217880,0766 570670,,,
Micarelli Simone,Aziende CerveteriRistoranti CerveteriOsterie Cerveteri,"Via Mario Pelagalli, 13, Cerveteri Roma, Italia  ",217881,06 994 3413,,,
Antica Locanda Le Ginestre,Aziende CerveteriRistoranti CerveteriOsterie Cerveteri,"Via S. Maria, Cerveteri Roma, Italia  ",217875,06 994 3365,,,
Ristorante Pizzeria T-Bone Steak House Duecie Sas Di Celbova Paul Julien Vladimir & C.,Aziende CerveteriRistoranti CerveteriOsterie Cerveteri,"Viale Alessandro Manzoni, 92, Cerveteri Roma, Italia  ",217876,06 9955 2650,,,
Tanit Srl,Aziende CerveteriRistoranti CerveteriOsterie Cerveteri,"Via Doganale 138, 00050, Loc. Borgo San Martino - Cerveteri, Italia  ",217877,06 9920 6711,,,
Ristorante Il Cavallino Bianco,Aziende CerveteriRistoranti CerveteriOsterie Cerveteri,"Piazza Risorgimento, 7, Cerveteri Roma, Italia  ",217872,06 994 3693,,,
Ristorante la Taverna Ceretana,Aziende CerveteriRistoranti CerveteriOsterie Cerveteri,"Via Ceretana, 29, Cerveteri Roma, Italia  ",217873,06 994 1589,,,
Osteria Del Castello,Aziende CerveteriRistoranti CerveteriOsterie Cerveteri,"Via Agillina, 41, Cerveteri Roma, Italia  ",217874,347 194 6871,,,
Ristorante Sora Lella,Aziende CerveteriRistoranti CerveteriOsterie Cerveteri,"1 v. Delle Stalle, Cerveteri, RM 00052, Italia  ",217871,06 9920 7248,,,
Segreto Carmelo,Aziende CerveteriNegozi CerveteriGioiellerie Cerveteri,"Via Agillina, 47, Cerveteri Roma, Italia  ",207059,06 994 2152,,,
Del Duca Gian Maria,Aziende CerveteriNegozi CerveteriGioiellerie Cerveteri,"Via Roma, 2, Cerveteri Roma, Italia  ",207060,06 994 1931,,,
Abramia Giuseppe,Aziende CerveteriNegozi CerveteriGioiellerie Cerveteri,"Via Ceretana, 45, Cerveteri Roma, Italia  ",207058,06 9955 0133,,,
Si.Mar S.N.C. Di Gubbini Silvana E Iovinelli Margherita,Aziende CerveteriNegozi CerveteriNegozi di scarpe Cerveteri,"Viale Alessandro Manzoni, 60, Cerveteri Roma, Italia  ",199995,06 994 2352,,,
Shoes & Sport Sas Di Nazzarena Ilari,Aziende CerveteriNegozi CerveteriNegozi di scarpe Cerveteri,"Viale Alessandro Manzoni, 26, Cerveteri Roma, Italia  ",199993,06 994 3457,,,
Glamour Srl,Aziende CerveteriNegozi CerveteriNegozi di scarpe Cerveteri,"Via Settevene Palo, 91, Cerveteri Roma, Italia  ",199994,06 994 0728,,,
Ortopedia E Sanitaria Etrusca,Aziende CerveteriErboristerie CerveteriNegozi CerveteriNegozi di scarpe CerveteriNegozi di Abbigliamento Cerveteri,"Via Settevene Palo, 204, Cerveteri Roma, Italia  ",199992,06 995 1867,,,
Ma.Gi Le Parrucchiere Di Ragusa Maria E Specchio Giuliana Snc,Aziende CerveteriParrucchieri Cerveteri,"Via Settevene Palo, 157, Cerveteri Roma, Italia  ",191563,06 995 3138,,,
Fantasia Capelli Di Fubelli Loredana,Aziende CerveteriParrucchieri Cerveteri,"Via Settevene Palo, Cerveteri Roma, Italia  ",191564,06 994 3338,,,
Padroni Egizia,Aziende CerveteriParrucchieri Cerveteri,"Piazza Vicinatello, Cerveteri Roma, Italia  ",191560,06 994 3433,,,
Rinaldi Anna Maria,Aziende CerveteriParrucchieri Cerveteri,"Via Armando Diaz, 24, Cerveteri Roma, Italia  ",191561,06 994 3446,,,
Pierantozzi Gabriela,Aziende CerveteriParrucchieri Cerveteri,"Via Settevene Palo, 263, Cerveteri Roma, Italia  ",191562,06 994 2687,,,
Alegi Di Salvini Giuseppe E Pinna Claudia & C. S.A.S.,Aziende CerveteriParrucchieri Cerveteri,"Viale Alessandro Manzoni, 52, Cerveteri Roma, Italia  ",191559,06 995 1280,,,
Rinaldi Domenico,Aziende CerveteriOsterie CerveteriNegozi CerveteriNegozi di Alimentari Cerveteri,"Via Lombardia, 9, Cerveteri Roma, Italia  ",187517,06 994 2711,,,
Ilari Sergio,Aziende CerveteriOsterie CerveteriNegozi CerveteriNegozi di Alimentari Cerveteri,"Via Agillina, Cerveteri Roma, Italia  ",187518,06 994 0012,,,
Colordream Di Caruso Davide,Aziende CerveteriImbianchini Cerveteri,"Via Settevene Palo, 237, Cerveteri Roma, Italia  ",184919,06 994 3765,,,
Farmacia Pratocavalieri Di Morabito Dott.Ssa Teresa,Aziende CerveteriErboristerie CerveteriNegozi CerveteriFarmacie Cerveteri,"Via Mario Pelagalli, 81, Cerveteri Roma, Italia  ",173250,06 9955 1302,,,
Multiservizi Caerite S.P.A.,Aziende CerveteriErboristerie CerveteriNegozi CerveteriFarmacie Cerveteri,"Piazza Risorgimento, 1, Cerveteri Roma, Italia  ",173248,06 994 0006,,,
Multiservizi Caerite Spa,Aziende CerveteriErboristerie CerveteriNegozi CerveteriFarmacie Cerveteri,"Via Settevene Palo, 81, Cerveteri Roma, Italia  ",173249,06 995 1514,,,
Beta Srl,Aziende CerveteriCentri commerciali Cerveteri,"Largo Almuneacar, 13, Cerveteri Roma, Italia  ",169721,06 994 0864,,,
Prov. Relig. Maria Madre Carmelo,Aziende CerveteriChiese CerveteriLuoghi di culto Cerveteri,"Via S. Angelo, 6, Cerveteri Roma, Italia  ",137989,06 995 1217,,,
Olimpia Gym Cerveteri,Aziende CerveteriErboristerie CerveteriPalestre Cerveteri,"Viale Alessandro Manzoni, 30, Cerveteri Roma, Italia  ",134304,06 9955 2890,,,
Comune Cerveteri,Capoluoghi CerveteriMunicipi CerveteriUffici Comunali CerveteriAziende CerveteriLuoghi famosi Cerveteri,"Via Friuli, 7, Cerveteri Roma, Italia  ",118768,06 994 2586,,,
Comune,Capoluoghi CerveteriMunicipi CerveteriUffici Comunali CerveteriAziende CerveteriLuoghi famosi Cerveteri,"Piazza Risorgimento, 1, Cerveteri Roma, Italia  ",118770,06 994 2584,,,
Comune,Capoluoghi CerveteriMunicipi CerveteriUffici Comunali CerveteriAziende CerveteriLuoghi famosi Cerveteri,"Piazza Risorgimento, 20, Cerveteri Roma, Italia  ",118772,06 995 1024,,,
Multiservizi Caerite S.P.A.,Capoluoghi CerveteriMunicipi CerveteriUffici Comunali CerveteriAziende CerveteriLuoghi famosi Cerveteri,"Vicolo Mario Fabio Sollazzi, 3, Cerveteri Roma, Italia  ",118773,06 9955 2659,,,
Comune di Cerveteri,Capoluoghi CerveteriMunicipi CerveteriUffici Comunali CerveteriAziende CerveteriLuoghi famosi Cerveteri,"Piazza Risorgimento, 1, Cerveteri Roma, Italia  ",118766,06 896301,,,
Comune Di Cerveteri,Capoluoghi CerveteriMunicipi CerveteriUffici Comunali CerveteriAziende CerveteriLuoghi famosi Cerveteri,"Via Settevene Palo, Cerveteri Roma, Italia  ",118767,06 9955 1962,,,
Studio Legale Associato Morani & Orfei,Aziende CerveteriAvvocati Cerveteri,"Via Armando Diaz, 11, Cerveteri Roma, Italia  ",110631,06 994 3990,,,
Esthetique Magie Mearelli Giovanna,Aziende CerveteriSaloni di Bellezza Cerveteri,"Via Livry Gargan, Cerveteri Roma, Italia  ",96331,06 994 1255,,,
Beauty Center Donna In Di Loualiche Aicha & C. S.A.S.,Aziende CerveteriSaloni di Bellezza Cerveteri,"Viale Alessandro Manzoni, 50, Cerveteri Roma, Italia  ",96332,06 995 1736,,,
Branca Oriana,Aziende CerveteriSaloni di Bellezza Cerveteri,"Via Armando Diaz, 27, Cerveteri Roma, Italia  ",96333,06 995 2197,,,
Il Girasole Estetica E Solarium Srl,Aziende CerveteriSaloni di Bellezza Cerveteri,"Viale Alessandro Manzoni, 52, Cerveteri Roma, Italia  ",96327,06 994 2999,,,
Centro Estetico Giosiana,Aziende CerveteriSaloni di Bellezza Cerveteri,"Via S. Pietro, 15, Cerveteri Roma, Italia  ",96329,06 9955 1974,,,
Poste Italiane Poste Italiane Spa,Uffici Comunali CerveteriAziende CerveteriIstituti finanziari CerveteriCommercialisti Cerveteri,"Via Settevene Palo, 214, Cerveteri Roma, Italia  ",72942,06 9955 6020,,,
Daddabbo Rag. Anna Maria,Aziende CerveteriIstituti finanziari CerveteriCommercialisti Cerveteri,"Via Giulio Valeri, Cerveteri Roma, Italia  ",72943,06 994 1535,,,
Di Stefano Giuliano,Aziende CerveteriIstituti finanziari CerveteriCommercialisti Cerveteri,"Via Adorno Bruschi, 9, Cerveteri Roma, Italia  ",72940,06 994 0970,,,
Galli Angelo,Aziende CerveteriIstituti finanziari CerveteriCommercialisti Cerveteri,"Via Bastioni, 2, Cerveteri Roma, Italia  ",72941,06 994 3921,,,
Formichetti Dr. Giancarlo,Aziende CerveteriErboristerie CerveteriOspedali Cerveteri,"Via Monte Zebio, 11, Cerveteri Roma, Italia  ",66046,06 995 2081,,,
Medicina Del Territorio S.C. A R. L.,Aziende CerveteriErboristerie CerveteriOspedali Cerveteri,"Viale Alessandro Manzoni, 82, Cerveteri Roma, Italia  ",66047,06 994 0117,,,
Azienda Unita Sanitaria Locale Roma F,Aziende CerveteriErboristerie CerveteriOspedali Cerveteri,"Via Martiri delle Foibe, Roma, Italia  ",66048,06 995 3532,,,
Iorio Franco,Aziende CerveteriBancomat CerveteriIstituti finanziari CerveteriDistributori di benzina Cerveteri,"Km. 16.500 Via Settevene Palo, Cerveteri, RM 00052, Italia  ",58952,06 994 3840,,,
D'Annunzio David,Aziende CerveteriFerramenta Cerveteri,"Via Giulio Valeri, Cerveteri Roma, Italia  ",51315,06 995 3523,,,
Tecnoservice Tre Emme 2004 Srl,Aziende CerveteriIdraulici Cerveteri,"Via Piave, 5, Cerveteri Roma, Italia  ",51244,06 9955 9280,,,
Baltur Spa,Aziende CerveteriIdraulici Cerveteri,"Cerveteri Roma, Italia  ",51246,,,,
Gm Impianti Soc.Coop.,Aziende CerveteriIdraulici Cerveteri,"Via Monte Grappa, 1, Cerveteri Roma, Italia  ",51249,06 9992 0033,,,
Termoidraulica R & R Srl,Aziende CerveteriIdraulici Cerveteri,"Viale Alessandro Manzoni, 44, Cerveteri Roma, Italia  ",51241,06 994 2241,,,
Futur Clima Di Spada Roberto,Aziende CerveteriIdraulici Cerveteri,"12 Via Necropoli, Cerveteri, RM 00052, Italia  ",51243,06 9955 1251,,,
Si.Ste. Di Sebastiani Bruno E C. S.N.C.,Aziende CerveteriOsterie CerveteriNegozi CerveteriPanetterie Cerveteri,"Via Settevene Palo, 200, Cerveteri Roma, Italia  ",48917,06 995 1718,,,
Valentina D.M. Srl,Aziende CerveteriOsterie CerveteriNegozi CerveteriPanetterie Cerveteri,"Viale Alessandro Manzoni, 66, Cerveteri Roma, Italia  ",48918,06 995 1570,,,
Panificio Guglielmi Di Guglielmi Mario E C. S.A.S,Aziende CerveteriOsterie CerveteriNegozi CerveteriPanetterie Cerveteri,"Piazza Gramsci, 9, Cerveteri Roma, Italia  ",48919,06 994 2577,,,
Forno Travagliati Di Alessandro Travagliati & C. Sas,Aziende CerveteriOsterie CerveteriNegozi CerveteriPanetterie Cerveteri,"Via S. Angelo, 12, Cerveteri Roma, Italia  ",48916,06 994 2465,,,
Agenzia Funebre Sampaolesi Sas Di Sampaolesi Eugenio & C.,Aziende CerveteriPompe funebri Cerveteri,"Via Settevene Palo, 248, Cerveteri Roma, Italia  ",27494,06 994 3586,,,
Sampaolesi Sas,Aziende CerveteriPompe funebri Cerveteri,"Via Settevene Palo, 248, Cerveteri Roma, Italia  ",27495,06 994 3586,,,
Mezzopane Dei F.Lli Mezzopane Srl,Aziende CerveteriPompe funebri Cerveteri,"Via Settevene Palo, 167, Cerveteri Roma, Italia  ",27493,06 994 3583,,,
Mondo Convenienza,Aziende CerveteriNegozi CerveteriNegozi di casalinghi CerveteriNegozi di arredamento Cerveteri,"Via Settevene Palo, 87, Cerveteri Roma, Italia  ",24956,06 729671,,,
Ricci Arredamenti Di Ricci Ugo E Riccardo Snc,Aziende CerveteriNegozi CerveteriNegozi di casalinghi CerveteriNegozi di arredamento Cerveteri,"Via Settevene Palo, 117, Cerveteri Roma, Italia  ",24958,06 995 2051,,,
Ikea Store,Aziende CerveteriNegozi CerveteriNegozi di casalinghi CerveteriNegozi di arredamento Cerveteri,"Cerveteri Roma, Italia  ",24960,,,,
Cere Mobili Srl,Aziende CerveteriNegozi CerveteriNegozi di casalinghi CerveteriNegozi di arredamento Cerveteri,"Via Settevene Palo, 87, Cerveteri Roma, Italia  ",24962,06 995 3580,,,